#aV2009  1  3  0  0   .00000000      96 DD+AD WGS84 FIT  NGA
## 1512 518400.00000000   900.00000000 54834  .0000000000000
+   31     2  3  4  5  6  7  8  9 10 11 12 13 14 15 16 17 18
+         19 20 21 22 23 24 25 26 27 28 29 30 31 32  0  0  0
+          0  0  0  0  0  0  0  0  0  0  0  0  0  0  0  0  0
+          0  0  0  0  0  0  0  0  0  0  0  0  0  0  0  0  0
+          0  0  0  0  0  0  0  0  0  0  0  0  0  0  0  0  0
++         0  0  0  0  0  0  0  0  0  0  0  0  0  0  0  0  0
++         0  0  0  0  0  0  0  0  0  0  0  0  0  0  0  0  0
++         0  0  0  0  0  0  0  0  0  0  0  0  0  0  0  0  0
++         0  0  0  0  0  0  0  0  0  0  0  0  0  0  0  0  0
++         0  0  0  0  0  0  0  0  0  0  0  0  0  0  0  0  0
%c cc cc ccc ccc cccc cccc cccc cccc ccccc ccccc ccccc ccccc
%c cc cc ccc ccc cccc cccc cccc cccc ccccc ccccc ccccc ccccc
%f  0.0000000  0.000000000  0.00000000000  0.000000000000000
%f  0.0000000  0.000000000  0.00000000000  0.000000000000000
%i    0    0    0    0      0      0      0      0         0
%i    0    0    0    0      0      0      0      0         0
/*      NGA, ST. LOUIS,MO.                                  
/*   EPHEMERIS COMPUTED FROM  3 DAYS OF DATA                
/* CCCCCCCCCCCCCCCCCCCCCCCCCCCCCCCCCCCCCCCCCCCCCCCCCCCCCCCCC
/* CCCCCCCCCCCCCCCCCCCCCCCCCCCCCCCCCCCCCCCCCCCCCCCCCCCCCCCCC
*  2009  1  3  1 45   .00000000                                                 
P  2  13935.605722  10323.564912 -20335.617586    163.580172                    
V  2  -3192.258167  25331.875598  10354.184919      -.019682                    
P  3 -24433.685697  -9610.310343   4814.335209    333.503697                    
V  3  -3876.716062  -6260.403976 -29939.100233       .052997                    
P  4   7029.537836  22042.199637 -12830.531009   -286.328762                    
V  4  -4720.316128  15868.760614  25288.085190      -.131151                    
P  5  20788.682517 -15805.083387  -4762.343593   -481.014179                    
V  5   6604.862653     44.398575  30702.697726      -.659512                    
P  6 -22942.598778 -13289.899143   1949.585046    104.247040                    
V  6     97.699844  -4286.515755 -30992.149434      -.113164                    
P  7  -7218.164714  24579.240532  -6815.944843     23.471244                    
V  7  -1747.896744  -8873.418631 -30329.400025      -.000949                    
P  8    297.868491  25465.704824   6497.338216   -184.760128                    
V  8  -3617.554540   7950.655602 -31200.583371      -.016248                    
P  9  13488.484277 -12245.005868  18646.057942     32.974338                    
V  9   -204.433073  25082.752466  16182.963881       .019881                    
P 10  22894.718339    874.564610 -13870.986211     -8.950540                    
V 10 -15140.055021   8448.289201 -24386.683893      -.004452                    
P 11 -13221.922177  13941.560817  18013.563526     11.595298                    
V 11  -5079.515171 -23277.789255  14489.374723      -.009713                    
P 12  23715.355729 -11730.647641  -1526.346171   -328.826452                    
V 12   2970.541768   1673.852417  31857.547629       .031492                    
P 13  -5899.787335  13666.812470 -22114.188930    283.520239                    
V 13 -21745.666767 -17165.332468  -4821.839599       .014625                    
P 14 -13982.060541 -19899.836832  10924.753916   -173.481889                    
V 14  11724.881234   7089.348999  28130.231939       .051035                    
P 15  21814.813273   2330.430971  15035.809751   -236.380483                    
V 15  14396.541932  12613.631152 -22847.070009      -.057356                    
P 16 -18729.341211  -5530.850870 -18042.745747     84.691095                    
V 16  20561.116702 -10244.342209 -17928.725967      -.026085                    
P 17  11772.942018  20088.409108  12993.488692     43.325299                    
V 17 -14418.852664  -8020.086299  25373.415825       .009035                    
P 18   9079.566983 -17608.009350  17727.328109    -96.851809                    
V 18  21383.362518  -6598.635152 -18076.957909       .037164                    
P 19 -20957.722783  -2512.654053  16320.378730     34.285882                    
V 19 -14616.400033 -14521.976875 -20866.731167      -.003885                    
P 20 -22050.006468  14103.782704  -4480.530150     94.697758                    
V 20  -6437.997414   -579.695801  30728.287633      -.010051                    
P 21   4401.130491 -25777.734698  -1687.880338     35.612819                    
V 21   3864.013185   2944.668831 -31465.750820      -.016979                    
P 22  -3642.988951 -15379.690114  21500.905302    207.232718                    
V 22  25146.837527  -9843.680800  -2858.069541      -.004885                    
P 23 -14741.003539   7072.229101 -21032.479927    384.224761                    
V 23 -21099.299832 -16057.761285   9146.966349       .008797                    
P 24  13028.154531 -18341.885803 -14188.067351    154.506278                    
V 24   -547.146502  18295.564379 -23649.867117       .031953                    
P 25  -9108.251518  21139.227042 -13052.343823    146.630927                    
V 25  -1963.961017 -17091.850614 -25430.337027       .271452                    
P 26  22660.807110   9864.353071   9904.684631     32.565178                    
V 26   9411.269818   9230.933050 -28725.561899       .036224                    
P 27   4139.794042  25265.151166   7597.138902     13.097773                    
V 27  -2608.363837   8649.421992 -30114.716632       .031336                    
P 28   1568.463377  15653.439589  21768.635670    -23.784422                    
V 28 -24877.860467   9736.908537  -5638.864989       .000178                    
P 29   7111.230853 -13586.179010 -21588.094311    -20.855182                    
V 29  22222.063657  16460.233431  -2990.359871       .026251                    
P 30  15010.652070 -17872.767001 -12957.419261    117.427859                    
V 30  15351.820431  -4929.187626  25370.267736       .023842                    
P 31  -8107.170536 -20368.146874 -14695.470121    -46.157969                    
V 31   3841.741423 -18778.112737  23680.376059      -.015318                    
P 32 -25420.290571   6804.940111   2925.726177    306.094822                    
V 32   2121.814673  -3702.023298  31742.480460      -.023795                    
EOF
